{"type": "FeatureCollection", "features": [{"type": "Feature", "properties": {"norad_id": 50032, "name": "COSMOS 1408 DEB", "group": "cosmos-1408-debris", "lat": 12.265599337093882, "lon": 49.67350316004593, "alt_km": 440.7146849139126, "timestamp": "2025-12-22T22:44:21.245978+00:00", "meta": {"OBJECT_NAME": "COSMOS 1408 DEB", "OBJECT_ID": "1982-092RU", "EPOCH": "2025-12-22T13:21:50.273568", "MEAN_MOTION": 15.45786915, "ECCENTRICITY": 0.00162425, "INCLINATION": 82.5631, "RA_OF_ASC_NODE": 48.4466, "ARG_OF_PERICENTER": 172.1724, "MEAN_ANOMALY": 187.9782, "EPHEMERIS_TYPE": 0, "CLASSIFICATION_TYPE": "U", "NORAD_CAT_ID": 50032, "ELEMENT_SET_NO": 999, "REV_AT_EPOCH": 22755, "BSTAR": 0.00010310912, "MEAN_MOTION_DOT": 5.057e-05, "MEAN_MOTION_DDOT": 0}, "tle": {"line1": "1 50032U 82092RU  25356.55683187  .00005057  00000+0  10311-3 0  9990", "line2": "2 50032  82.5631  48.4466 0016242 172.1724 187.9782 15.45786915227552"}}, "geometry": {"type": "Point", "coordinates": [49.67350316004593, 12.265599337093882]}}, {"type": "Feature", "properties": {"norad_id": 50058, "name": "COSMOS 1408 DEB", "group": "cosmos-1408-debris", "lat": 0.7402457420573816, "lon": -121.44200752140034, "alt_km": 381.70456137036217, "timestamp": "2025-12-22T22:44:21.245998+00:00", "meta": {"OBJECT_NAME": "COSMOS 1408 DEB", "OBJECT_ID": "1982-092SW", "EPOCH": "2025-12-22T05:05:37.437504", "MEAN_MOTION": 15.64648266, "ECCENTRICITY": 0.00160261, "INCLINATION": 82.6121, "RA_OF_ASC_NODE": 59.4243, "ARG_OF_PERICENTER": 66.9716, "MEAN_ANOMALY": 293.3232, "EPHEMERIS_TYPE": 0, "CLASSIFICATION_TYPE": "U", "NORAD_CAT_ID": 50058, "ELEMENT_SET_NO": 999, "REV_AT_EPOCH": 22952, "BSTAR": 0.00035457608, "MEAN_MOTION_DOT": 0.00034625, "MEAN_MOTION_DDOT": 0}, "tle": {"line1": "1 50058U 82092SW  25356.21223886  .00034625  00000+0  35458-3 0  9999", "line2": "2 50058  82.6121  59.4243 0016026  66.9716 293.3232 15.64648266229529"}}, "geometry": {"type": "Point", "coordinates": [-121.44200752140034, 0.7402457420573816]}}, {"type": "Feature", "properties": {"norad_id": 50404, "name": "COSMOS 1408 DEB", "group": "cosmos-1408-debris", "lat": -79.3657889510443, "lon": 71.44010921733525, "alt_km": 543.2524170160623, "timestamp": "2025-12-22T22:44:21.246013+00:00", "meta": {"OBJECT_NAME": "COSMOS 1408 DEB", "OBJECT_ID": "1982-092ADS", "EPOCH": "2025-12-22T13:40:10.224192", "MEAN_MOTION": 15.1526817, "ECCENTRICITY": 0.01679183, "INCLINATION": 82.2028, "RA_OF_ASC_NODE": 204.9588, "ARG_OF_PERICENTER": 165.1635, "MEAN_ANOMALY": 195.4616, "EPHEMERIS_TYPE": 0, "CLASSIFICATION_TYPE": "U", "NORAD_CAT_ID": 50404, "ELEMENT_SET_NO": 999, "REV_AT_EPOCH": 21342, "BSTAR": 0.0033048344, "MEAN_MOTION_DOT": 0.0008987, "MEAN_MOTION_DDOT": 0}, "tle": {"line1": "1 50404U 82092ADS 25356.56956278  .00089870  00000+0  33048-2 0  9994", "line2": "2 50404  82.2028 204.9588 0167918 165.1635 195.4616 15.15268170213422"}}, "geometry": {"type": "Point", "coordinates": [71.44010921733525, -79.3657889510443]}}, {"type": "Feature", "properties": {"norad_id": 50621, "name": "COSMOS 1408 DEB", "group": "cosmos-1408-debris", "lat": -76.95430924764334, "lon": 29.268866779718234, "alt_km": 422.2305148274336, "timestamp": "2025-12-22T22:44:21.246025+00:00", "meta": {"OBJECT_NAME": "COSMOS 1408 DEB", "OBJECT_ID": "1982-092ALR", "EPOCH": "2025-12-22T10:44:32.812800", "MEAN_MOTION": 15.57134426, "ECCENTRICITY": 0.00290323, "INCLINATION": 82.5695, "RA_OF_ASC_NODE": 64.0714, "ARG_OF_PERICENTER": 117.4575, "MEAN_ANOMALY": 242.9638, "EPHEMERIS_TYPE": 0, "CLASSIFICATION_TYPE": "U", "NORAD_CAT_ID": 50621, "ELEMENT_SET_NO": 999, "REV_AT_EPOCH": 22401, "BSTAR": 0.00037475493, "MEAN_MOTION_DOT": 0.00027795, "MEAN_MOTION_DDOT": 0}, "tle": {"line1": "1 50621U 82092ALR 25356.44760200  .00027795  00000+0  37475-3 0  9997", "line2": "2 50621  82.5695  64.0714 0029032 117.4575 242.9638 15.57134426224010"}}, "geometry": {"type": "Point", "coordinates": [29.268866779718234, -76.95430924764334]}}]}